FALCONSAT-10            
1 58291U 23174AM  26068.70247784  .00006748  00000+0  25969-3 0  9991
2 58291  97.3865 145.7938 0008932 169.5942 190.5483 15.26670596129582
STARLINK-34112          
1 63969U 25099T   26068.31706075  .00037101  00000+0  13505-2 0  9996
2 63969  42.9962 177.9428 0001810 302.8409  57.2268 15.27590616 47284
